[{"OBJECT_NAME":"STARLINK-2567","OBJECT_ID":"2021-036A","EPOCH":"2026-03-09T05:01:13.564992","MEAN_MOTION":15.06409165,"ECCENTRICITY":0.00013167,"INCLINATION":53.0552,"RA_OF_ASC_NODE":48.774,"ARG_OF_PERICENTER":114.84,"MEAN_ANOMALY":245.2726,"EPHEMERIS_TYPE":0,"CLASSIFICATION_TYPE":"U","NORAD_CAT_ID":48276,"ELEMENT_SET_NO":999,"REV_AT_EPOCH":26873,"BSTAR":-4.4168655e-5,"MEAN_MOTION_DOT":-9.39e-6,"MEAN_MOTION_DDOT":0},{"OBJECT_NAME":"YUNYAO-1 43","OBJECT_ID":"2025-059A","EPOCH":"2026-03-09T23:54:24.516576","MEAN_MOTION":15.10329109,"ECCENTRICITY":0.00157026,"INCLINATION":97.608,"RA_OF_ASC_NODE":250.9377,"ARG_OF_PERICENTER":132.1084,"MEAN_ANOMALY":228.1483,"EPHEMERIS_TYPE":0,"CLASSIFICATION_TYPE":"U","NORAD_CAT_ID":63344,"ELEMENT_SET_NO":999,"REV_AT_EPOCH":5332,"BSTAR":0.00032498885,"MEAN_MOTION_DOT":5.279e-5,"MEAN_MOTION_DDOT":0}]
